{
  "type": "FeatureCollection",
  "features": [
    {
      "type": "Feature",
      "properties": {
        "norad_id": 31036,
        "name": "FENGYUN 1C DEB",
        "group": "fengyun-1c-debris",
        "lat": 52.97303376488437,
        "lon": 71.11342604336997,
        "alt_km": 772.4617714837104,
        "timestamp": "2025-12-03T04:52:29.917385+00:00",
        "meta_object_name": "FENGYUN 1C DEB",
        "meta_object_id": "1999-025BEE",
        "meta_epoch": "2025-12-02T13:46:11.366688",
        "meta_mean_motion": 14.49040377,
        "meta_eccentricity": 0.01376477,
        "meta_inclination": 98.9155,
        "meta_ra_of_asc_node": 82.4603,
        "meta_arg_of_pericenter": 295.348,
        "meta_mean_anomaly": 75.9553,
        "meta_ephemeris_type": 0,
        "meta_classification_type": "U",
        "meta_norad_cat_id": 31036,
        "meta_element_set_no": 999,
        "meta_rev_at_epoch": 57160,
        "meta_bstar": 0.00026923206,
        "meta_mean_motion_dot": 1.094e-05,
        "meta_mean_motion_ddot": 0,
        "tle_line1": "1 31036U 99025BEE 25336.57374267  .00001094  00000+0  26923-3 0  9996",
        "tle_line2": "2 31036  98.9155  82.4603 0137647 295.3480  75.9553 14.49040377571606"
      },
      "geometry": {
        "type": "Point",
        "coordinates": [
          71.11342604336997,
          52.97303376488437
        ]
      }
    },
    {
      "type": "Feature",
      "properties": {
        "norad_id": 31038,
        "name": "FENGYUN 1C DEB",
        "group": "fengyun-1c-debris",
        "lat": -35.39825434132679,
        "lon": 67.1047990943239,
        "alt_km": 722.1127882344181,
        "timestamp": "2025-12-03T04:52:29.917395+00:00",
        "meta_object_name": "FENGYUN 1C DEB",
        "meta_object_id": "1999-025BEG",
        "meta_epoch": "2025-12-02T04:07:32.187648",
        "meta_mean_motion": 14.4574661,
        "meta_eccentricity": 0.00840344,
        "meta_inclination": 99.0146,
        "meta_ra_of_asc_node": 59.5324,
        "meta_arg_of_pericenter": 260.1378,
        "meta_mean_anomaly": 99.0316,
        "meta_ephemeris_type": 0,
        "meta_classification_type": "U",
        "meta_norad_cat_id": 31038,
        "meta_element_set_no": 999,
        "meta_rev_at_epoch": 98082,
        "meta_bstar": 0.00073536601,
        "meta_mean_motion_dot": 2.669e-05,
        "meta_mean_motion_ddot": 0,
        "tle_line1": "1 31038U 99025BEG 25336.17190032  .00002669  00000+0  73537-3 0  9992",
        "tle_line2": "2 31038  99.0146  59.5324 0084034 260.1378  99.0316 14.45746610980823"
      },
      "geometry": {
        "type": "Point",
        "coordinates": [
          67.1047990943239,
          -35.39825434132679
        ]
      }
    },
    {
      "type": "Feature",
      "properties": {
        "norad_id": 31040,
        "name": "FENGYUN 1C DEB",
        "group": "fengyun-1c-debris",
        "lat": -44.231322216970085,
        "lon": 138.76317919625185,
        "alt_km": 795.4679215549095,
        "timestamp": "2025-12-03T04:52:29.917406+00:00",
        "meta_object_name": "FENGYUN 1C DEB",
        "meta_object_id": "1999-025BEJ",
        "meta_epoch": "2025-12-02T11:35:50.825760",
        "meta_mean_motion": 14.17650516,
        "meta_eccentricity": 0.00617616,
        "meta_inclination": 98.6578,
        "meta_ra_of_asc_node": 326.5918,
        "meta_arg_of_pericenter": 223.8768,
        "meta_mean_anomaly": 288.919,
        "meta_ephemeris_type": 0,
        "meta_classification_type": "U",
        "meta_norad_cat_id": 31040,
        "meta_element_set_no": 999,
        "meta_rev_at_epoch": 96561,
        "meta_bstar": 0.00042184298,
        "meta_mean_motion_dot": 8.31e-06,
        "meta_mean_motion_ddot": 0,
        "tle_line1": "1 31040U 99025BEJ 25336.48322715  .00000831  00000+0  42184-3 0  9997",
        "tle_line2": "2 31040  98.6578 326.5918 0061761 223.8768 288.9190 14.17650516965614"
      },
      "geometry": {
        "type": "Point",
        "coordinates": [
          138.76317919625185,
          -44.231322216970085
        ]
      }
    },
    {
      "type": "Feature",
      "properties": {
        "norad_id": 31041,
        "name": "FENGYUN 1C DEB",
        "group": "fengyun-1c-debris",
        "lat": 76.90526443924671,
        "lon": -130.294581183844,
        "alt_km": 848.4006859326382,
        "timestamp": "2025-12-03T04:52:29.917416+00:00",
        "meta_object_name": "FENGYUN 1C DEB",
        "meta_object_id": "1999-025BEK",
        "meta_epoch": "2025-12-02T13:10:02.040672",
        "meta_mean_motion": 14.17690448,
        "meta_eccentricity": 0.00867187,
        "meta_inclination": 99.2062,
        "meta_ra_of_asc_node": 4.8237,
        "meta_arg_of_pericenter": 349.5973,
        "meta_mean_anomaly": 10.3404,
        "meta_ephemeris_type": 0,
        "meta_classification_type": "U",
        "meta_norad_cat_id": 31041,
        "meta_element_set_no": 999,
        "meta_rev_at_epoch": 95345,
        "meta_bstar": 0.0026435363,
        "meta_mean_motion_dot": 5.541e-05,
        "meta_mean_motion_ddot": 0,
        "tle_line1": "1 31041U 99025BEK 25336.54863473  .00005541  00000+0  26435-2 0  9999",
        "tle_line2": "2 31041  99.2062   4.8237 0086718 349.5973  10.3404 14.17690448953455"
      },
      "geometry": {
        "type": "Point",
        "coordinates": [
          -130.294581183844,
          76.90526443924671
        ]
      }
    },
    {
      "type": "Feature",
      "properties": {
        "norad_id": 31043,
        "name": "FENGYUN 1C DEB",
        "group": "fengyun-1c-debris",
        "lat": 66.72880161400575,
        "lon": -25.739015866053133,
        "alt_km": 834.1610382621238,
        "timestamp": "2025-12-03T04:52:29.917426+00:00",
        "meta_object_name": "FENGYUN 1C DEB",
        "meta_object_id": "1999-025BEM",
        "meta_epoch": "2025-12-02T12:14:08.314944",
        "meta_mean_motion": 14.08402875,
        "meta_eccentricity": 0.00418241,
        "meta_inclination": 98.7653,
        "meta_ra_of_asc_node": 354.6104,
        "meta_arg_of_pericenter": 33.0221,
        "meta_mean_anomaly": 121.8076,
        "meta_ephemeris_type": 0,
        "meta_classification_type": "U",
        "meta_norad_cat_id": 31043,
        "meta_element_set_no": 999,
        "meta_rev_at_epoch": 95843,
        "meta_bstar": 0.00066949294,
        "meta_mean_motion_dot": 1.113e-05,
        "meta_mean_motion_ddot": 0,
        "tle_line1": "1 31043U 99025BEM 25336.50981846  .00001113  00000+0  66949-3 0  9998",
        "tle_line2": "2 31043  98.7653 354.6104 0041824  33.0221 121.8076 14.08402875958437"
      },
      "geometry": {
        "type": "Point",
        "coordinates": [
          -25.739015866053133,
          66.72880161400575
        ]
      }
    },
    {
      "type": "Feature",
      "properties": {
        "norad_id": 31046,
        "name": "FENGYUN 1C DEB",
        "group": "fengyun-1c-debris",
        "lat": 20.31312261150799,
        "lon": -80.58913818694553,
        "alt_km": 652.4852642547485,
        "timestamp": "2025-12-03T04:52:29.917437+00:00",
        "meta_object_name": "FENGYUN 1C DEB",
        "meta_object_id": "1999-025BEQ",
        "meta_epoch": "2025-12-02T20:32:22.409088",
        "meta_mean_motion": 14.63031958,
        "meta_eccentricity": 0.0048592,
        "meta_inclination": 98.9686,
        "meta_ra_of_asc_node": 95.6822,
        "meta_arg_of_pericenter": 134.2365,
        "meta_mean_anomaly": 356.6368,
        "meta_ephemeris_type": 0,
        "meta_classification_type": "U",
        "meta_norad_cat_id": 31046,
        "meta_element_set_no": 999,
        "meta_rev_at_epoch": 96498,
        "meta_bstar": 0.0062841,
        "meta_mean_motion_dot": 0.00032881,
        "meta_mean_motion_ddot": 0,
        "tle_line1": "1 31046U 99025BEQ 25336.85581492  .00032881  00000+0  62841-2 0  9994",
        "tle_line2": "2 31046  98.9686  95.6822 0048592 134.2365 356.6368 14.63031958964989"
      },
      "geometry": {
        "type": "Point",
        "coordinates": [
          -80.58913818694553,
          20.31312261150799
        ]
      }
    },
    {
      "type": "Feature",
      "properties": {
        "norad_id": 31047,
        "name": "FENGYUN 1C DEB",
        "group": "fengyun-1c-debris",
        "lat": -33.53263640973242,
        "lon": 149.0690684963072,
        "alt_km": 834.538385705524,
        "timestamp": "2025-12-03T04:52:29.917447+00:00",
        "meta_object_name": "FENGYUN 1C DEB",
        "meta_object_id": "1999-025BER",
        "meta_epoch": "2025-11-30T06:16:53.018400",
        "meta_mean_motion": 14.13811848,
        "meta_eccentricity": 0.00250553,
        "meta_inclination": 98.6999,
        "meta_ra_of_asc_node": 332.031,
        "meta_arg_of_pericenter": 213.9152,
        "meta_mean_anomaly": 157.3733,
        "meta_ephemeris_type": 0,
        "meta_classification_type": "U",
        "meta_norad_cat_id": 31047,
        "meta_element_set_no": 999,
        "meta_rev_at_epoch": 96183,
        "meta_bstar": 0.00043698289,
        "meta_mean_motion_dot": 7.87e-06,
        "meta_mean_motion_ddot": 0,
        "tle_line1": "1 31047U 99025BER 25334.26172475  .00000787  00000+0  43698-3 0  9995",
        "tle_line2": "2 31047  98.6999 332.0310 0025055 213.9152 157.3733 14.13811848961834"
      },
      "geometry": {
        "type": "Point",
        "coordinates": [
          149.0690684963072,
          -33.53263640973242
        ]
      }
    }
  ]
}